{
    "links": {
        "self": "http://www.neowsapp.com/rest/v1/neo/3680895?api_key=iIulBulltgU6a56xZRHN4H3l9WmuAYTsLGpBGhQ2"
    },
    "id": "3680895",
    "neo_reference_id": "3680895",
    "name": "(2014 OF392)",
    "designation": "2014 OF392",
    "nasa_jpl_url": "http://ssd.jpl.nasa.gov/sbdb.cgi?sstr=3680895",
    "absolute_magnitude_h": 25.5,
    "estimated_diameter": {
        "kilometers": {
            "estimated_diameter_min": 0.0211132445,
            "estimated_diameter_max": 0.0472106499
        },
        "meters": {
            "estimated_diameter_min": 21.113244479,
            "estimated_diameter_max": 47.2106498806
        },
        "miles": {
            "estimated_diameter_min": 0.0131191578,
            "estimated_diameter_max": 0.0293353287
        },
        "feet": {
            "estimated_diameter_min": 69.2691770164,
            "estimated_diameter_max": 154.8905885541
        }
    },
    "is_potentially_hazardous_asteroid": false,
    "close_approach_data": [
        {
            "close_approach_date": "1910-07-05",
            "close_approach_date_full": "1910-Jul-05 22:17",
            "epoch_date_close_approach": -1877391780000,
            "relative_velocity": {
                "kilometers_per_second": "9.2150188457",
                "kilometers_per_hour": "33174.0678445833",
                "miles_per_hour": "20613.0756559856"
            },
            "miss_distance": {
                "astronomical": "0.0449317679",
                "lunar": "17.4784577131",
                "kilometers": "6721696.773174373",
                "miles": "4176668.7001494274"
            },
            "orbiting_body": "Venus"
        },
        {
            "close_approach_date": "2014-08-10",
            "close_approach_date_full": "2014-Aug-10 00:13",
            "epoch_date_close_approach": 1407629580000,
            "relative_velocity": {
                "kilometers_per_second": "14.2541522331",
                "kilometers_per_hour": "51314.9480391222",
                "miles_per_hour": "31885.1131301979"
            },
            "miss_distance": {
                "astronomical": "0.0285509719",
                "lunar": "11.1063280691",
                "kilometers": "4271164.582669853",
                "miles": "2653978.6050478514"
            },
            "orbiting_body": "Earth"
        }
    ],
    "orbital_data": {
        "orbit_id": "4",
        "orbit_determination_date": "2017-04-06 08:39:23",
        "first_observation_date": "2014-07-25",
        "last_observation_date": "2014-07-30",
        "data_arc_in_days": 5,
        "observations_used": 12,
        "orbit_uncertainty": "9",
        "minimum_orbit_intersection": ".00927341",
        "jupiter_tisserand_invariant": "4.367",
        "epoch_osculation": "2456867.5",
        "eccentricity": ".5092068712233399",
        "semi_major_axis": "1.511733750502452",
        "inclination": "4.520276947889379",
        "ascending_node_longitude": "117.7314722382798",
        "orbital_period": "678.9087257568175",
        "perihelion_distance": ".7419485372863736",
        "perihelion_argument": "278.5960712008521",
        "aphelion_distance": "2.281518963718531",
        "perihelion_time": "2456931.849598037647",
        "mean_anomaly": "325.8778059337378",
        "mean_motion": ".5302627383359787",
        "equinox": "J2000",
        "orbit_class": {
            "orbit_class_type": "APO",
            "orbit_class_description": "Near-Earth asteroid orbits which cross the Earth’s orbit similar to that of 1862 Apollo",
            "orbit_class_range": "a (semi-major axis) > 1.0 AU; q (perihelion) < 1.017 AU"
        }
    },
    "is_sentry_object": false
}